NORAD_CAT_ID,OBJECT_NAME,OBJECT_TYPE,EPOCH,MEAN_MOTION,ECCENTRICITY,INCLINATION,RA_OF_ASC_NODE,ARG_OF_PERICENTER,MEAN_ANOMALY,BSTAR,MEAN_MOTION_DOT,MEAN_MOTION_DDOT,TLE_LINE0,TLE_LINE1,TLE_LINE2,SEMIMAJOR_AXIS,PERIOD,APOGEE,PERIGEE,DECAYED
56491.0,STARLINK-5842,PAYLOAD,2024-02-29 14:20:26,14.98294325,0.0003085,70.0021,167.9713,260.5778,99.5033,0.00068348,8.064e-05,0.0,0 STARLINK-5842,1 56491U 23064AV  24060.59753038  .00008064  00000-0  68348-3 0  9992,2 56491  70.0021 167.9713 0003085 260.5778  99.5033 14.98294325 45524,6950.303,96.109,574.312,570.024,0.0
56491.0,STARLINK-5842,PAYLOAD,2024-02-29 17:32:42,14.98330708,0.0002861,70.0024,167.6343,258.8783,101.2054,9.7999e-05,1.077e-05,0.0,0 STARLINK-5842,1 56491U 23064AV  24060.73104232  .00001077  00000-0  97999-4 0  9996,2 56491  70.0024 167.6343 0002861 258.8783 101.2054 14.98330708 45902,6950.191,96.107,574.044,570.067,0.0
56491.0,STARLINK-5842,PAYLOAD,2024-03-01 14:22:26,14.98331767,0.0003141,70.002,165.4458,265.1317,94.9483,9.7451e-06,2.3e-07,0.0,0 STARLINK-5842,1 56491U 23064AV  24061.59892197  .00000023  00000-0  97451-5 0  9999,2 56491  70.0020 165.4458 0003141 265.1317  94.9483 14.98331767 45671,6950.187,96.107,574.235,569.869,0.0
56491.0,STARLINK-5842,PAYLOAD,2024-03-01 15:58:34,14.98333244,0.0003113,70.0021,165.2776,265.2424,94.838,2.8873e-05,2.52e-06,0.0,0 STARLINK-5842,1 56491U 23064AV  24061.66568043  .00000252  00000-0  28873-4 0  9992,2 56491  70.0021 165.2776 0003113 265.2424  94.8380 14.98333244 45680,6950.183,96.107,574.211,569.884,0.0
56491.0,STARLINK-5842,PAYLOAD,2024-03-02 11:12:11,14.98330689,0.0003371,70.0011,163.2561,265.8587,94.2186,-4.5934e-05,-6.41e-06,0.0,0 STARLINK-5842,1 56491U 23064AV  24062.46680237 -.00000641  00000-0 -45934-4 0  9992,2 56491  70.0011 163.2561 0003371 265.8587  94.2186 14.98330689 46163,6950.191,96.107,574.399,569.713,0.0
56491.0,STARLINK-5842,PAYLOAD,2024-03-02 14:24:27,14.98331434,0.0003293,70.0013,162.9196,264.263,95.8153,-3.0313e-05,-4.55e-06,0.0,0 STARLINK-5842,1 56491U 23064AV  24062.60032131 -.00000455  00000-0 -30313-4 0  9990,2 56491  70.0013 162.9196 0003293 264.2630  95.8153 14.98331434 45822,6950.188,96.107,574.342,569.765,0.0
56491.0,STARLINK-5842,PAYLOAD,2024-03-02 16:00:35,14.98333246,0.0003283,70.0015,162.7517,264.3942,95.6843,-1.2998e-05,-2.48e-06,0.0,0 STARLINK-5842,1 56491U 23064AV  24062.66707958 -.00000248  00000-0 -12998-4 0  9991,2 56491  70.0015 162.7517 0003283 264.3942  95.6843 14.98333246 45833,6950.183,96.107,574.33,569.766,0.0
56491.0,STARLINK-5842,PAYLOAD,2024-03-03 11:14:12,14.98328006,0.0003101,70.0019,160.7331,264.8842,95.1963,-1.3255e-05,-2.51e-06,0.0,0 STARLINK-5842,1 56491U 23064AV  24063.46820327 -.00000251  00000-0 -13255-4 0  9997,2 56491  70.0019 160.7331 0003101 264.8842  95.1963 14.98328006 46312,6950.199,96.107,574.219,569.909,0.0
56491.0,STARLINK-5842,PAYLOAD,2024-03-03 14:26:28,14.98327628,0.0003012,70.0023,160.3971,264.7458,95.3357,-1.1165e-05,-2.26e-06,0.0,0 STARLINK-5842,1 56491U 23064AV  24063.60172372 -.00000226  00000-0 -11165-4 0  9993,2 56491  70.0023 160.3971 0003012 264.7458  95.3357 14.98327628 45975,6950.2,96.107,574.159,569.972,0.0
56491.0,STARLINK-5842,PAYLOAD,2024-03-03 16:02:36,14.98329441,0.0002983,70.0022,160.2283,263.1109,96.9711,1.1673e-05,4.6e-07,0.0,0 STARLINK-5842,1 56491U 23064AV  24063.66848178  .00000046  00000-0  11673-4 0  9995,2 56491  70.0022 160.2283 0002983 263.1109  96.9711 14.98329441 45988,6950.195,96.107,574.133,569.986,0.0
56491.0,STARLINK-5842,PAYLOAD,2024-03-04 11:16:12,14.98343111,0.0003178,70.0017,158.2085,267.2399,92.8396,0.00013824,1.557e-05,0.0,0 STARLINK-5842,1 56491U 23064AV  24064.46958567  .00001557  00000-0  13824-3 0  9995,2 56491  70.0017 158.2085 0003178 267.2399  92.8396 14.98343111 46460,6950.152,96.106,574.226,569.809,0.0
56491.0,STARLINK-5842,PAYLOAD,2024-03-04 14:28:28,14.98344674,0.0003163,70.0018,157.8726,267.3605,92.7192,0.00015027,1.701e-05,0.0,0 STARLINK-5842,1 56491U 23064AV  24064.60310321  .00001701  00000-0  15027-3 0  9999,2 56491  70.0018 157.8726 0003163 267.3605  92.7192 14.98344674 46124,6950.148,96.106,574.211,569.814,0.0
56491.0,STARLINK-5842,PAYLOAD,2024-03-04 16:04:35,14.9834798,0.0003133,70.0018,157.7046,267.2913,92.7888,0.0001848,2.114e-05,0.0,0 STARLINK-5842,1 56491U 23064AV  24064.66985936  .00002114  00000-0  18480-3 0  9990,2 56491  70.0018 157.7046 0003133 267.2913  92.7888 14.98347980 46132,6950.137,96.106,574.18,569.825,0.0
56491.0,STARLINK-5842,PAYLOAD,2024-03-05 14:30:32,14.98311724,0.0003011,70.0015,155.3476,267.3802,92.7012,-0.00019924,-2.468e-05,0.0,0 STARLINK-5842,1 56491U 23064AV  24065.60453827 -.00002468  00000-0 -19924-3 0  9992,2 56491  70.0015 155.3476 0003011 267.3802  92.7012 14.98311724 46274,6950.249,96.108,574.207,570.022,0.0
56491.0,STARLINK-5842,PAYLOAD,2024-03-05 16:06:40,14.98312427,0.0002983,70.0016,155.1793,265.4494,94.6325,-0.00018839,-2.339e-05,0.0,0 STARLINK-5842,1 56491U 23064AV  24065.67129805 -.00002339  00000-0 -18839-3 0  9996,2 56491  70.0016 155.1793 0002983 265.4494  94.6325 14.98312427 46648,6950.247,96.108,574.185,570.039,0.0
56491.0,STARLINK-5842,PAYLOAD,2024-03-06 11:20:15,14.98335231,0.0002586,70.0028,153.1604,267.9123,92.174,-8.9249e-05,-1.158e-05,0.0,0 STARLINK-5842,1 56491U 23064AV  24066.47240139 -.00001158  00000-0 -89249-4 0  9991,2 56491  70.0028 153.1604 0002586 267.9123  92.1740 14.98335231 46760,6950.177,96.107,573.839,570.244,0.0
56491.0,STARLINK-5842,PAYLOAD,2024-03-06 12:56:23,14.98336843,0.0002403,70.0031,152.9927,258.0579,102.031,-6.5472e-05,-8.74e-06,0.0,0 STARLINK-5842,1 56491U 23064AV  24066.53915909 -.00000874  00000-0 -65472-4 0  9998,2 56491  70.0031 152.9927 0002403 258.0579 102.0310 14.98336843 46419,6950.172,96.107,573.707,570.367,0.0
56491.0,STARLINK-5842,PAYLOAD,2024-03-07 14:34:33,14.98319307,0.0002859,70.0013,150.2981,271.1736,88.9096,0.00017178,1.957e-05,0.0,0 STARLINK-5842,1 56491U 23064AV  24067.60732686  .00001957  00000-0  17178-3 0  9996,2 56491  70.0013 150.2981 0002859 271.1736  88.9096 14.98319307 46572,6950.226,96.108,574.078,570.104,0.0
56491.0,STARLINK-5842,PAYLOAD,2024-03-08 11:24:17,14.98336464,0.0002892,70.0011,148.11,266.4725,93.6103,-1.531e-05,-2.76e-06,0.0,0 STARLINK-5842,1 56491U 23064AV  24068.47520165 -.00000276  00000-0 -15310-4 0  9991,2 56491  70.0011 148.1100 0002892 266.4725  93.6103 14.98336464 47061,6950.173,96.107,574.048,570.028,0.0
56491.0,STARLINK-5842,PAYLOAD,2024-03-08 14:36:33,14.98336083,0.0002923,70.0009,147.7732,267.7614,92.3211,-2.9736e-05,-4.48e-06,0.0,0 STARLINK-5842,1 56491U 23064AV  24068.60872175 -.00000448  00000-0 -29736-4 0  9995,2 56491  70.0009 147.7732 0002923 267.7614  92.3211 14.98336083 46725,6950.174,96.107,574.071,570.008,0.0
56491.0,STARLINK-5842,PAYLOAD,2024-03-09 11:26:18,14.98333834,0.0002928,70.0004,145.5848,269.1051,90.9772,5.902e-05,6.11e-06,0.0,0 STARLINK-5842,1 56491U 23064AV  24069.47659887  .00000611  00000-0  59020-4 0  9993,2 56491  70.0004 145.5848 0002928 269.1051  90.9772 14.98333834 47212,6950.181,96.107,574.081,570.011,0.0
56491.0,STARLINK-5842,PAYLOAD,2024-03-10 11:28:18,14.98334573,0.0003004,69.9999,143.06,268.1761,91.9054,2.1802e-05,1.67e-06,0.0,0 STARLINK-5842,1 56491U 23064AV  24070.47799737  .00000167  00000-0  21802-4 0  9997,2 56491  69.9999 143.0600 0003004 268.1761  91.9054 14.98334573 47365,6950.179,96.107,574.132,569.956,0.0
56491.0,STARLINK-5842,PAYLOAD,2024-03-11 05:05:46,14.98362201,0.0003846,69.9999,141.2085,269.9964,90.0754,-0.00044438,-5.396e-05,0.0,0 STARLINK-5842,1 56491U 23064AV  24071.21234778 -.00005396  00000-0 -44438-3 0  9999,2 56491  69.9999 141.2085 0003846 269.9964  90.0754 14.98362201 47478,6950.093,96.105,574.631,569.285,0.0
56491.0,STARLINK-5842,PAYLOAD,2024-03-11 11:30:19,14.98337104,0.000319,69.9996,140.536,269.1122,90.9671,4.7312e-05,4.72e-06,0.0,0 STARLINK-5842,1 56491U 23064AV  24071.47939176  .00000472  00000-0  47312-4 0  9994,2 56491  69.9996 140.5360 0003190 269.1122  90.9671 14.98337104 47519,6950.171,96.107,574.253,569.819,0.0
56491.0,STARLINK-5842,PAYLOAD,2024-03-12 05:07:48,14.98327533,0.0002934,70.0002,138.6843,271.5647,88.5176,-3.0939e-05,-4.62e-06,0.0,0 STARLINK-5842,1 56491U 23064AV  24072.21375917 -.00000462  00000-0 -30939-4 0  9992,2 56491  70.0002 138.6843 0002934 271.5647  88.5176 14.98327533 47628,6950.201,96.107,574.105,570.026,0.0
56491.0,STARLINK-5842,PAYLOAD,2024-03-12 21:09:09,14.98338386,0.0002945,70.0003,137.0003,272.2474,87.8348,-0.00021279,-2.632e-05,0.0,0 STARLINK-5842,1 56491U 23064AV  24072.88135657 -.00002632  00000-0 -21279-3 0  9997,2 56491  70.0003 137.0003 0002945 272.2474  87.8348 14.98338386 47360,6950.167,96.106,574.079,569.985,0.0
56491.0,STARLINK-5842,PAYLOAD,2024-03-13 05:09:49,14.98331461,0.0002961,70.0002,136.16,269.1971,90.8849,-2.5656e-05,-3.99e-06,0.0,0 STARLINK-5842,1 56491U 23064AV  24073.21515683 -.00000399  00000-0 -25656-4 0  9998,2 56491  70.0002 136.1600 0002961 269.1971  90.8849 14.98331461 47779,6950.188,96.107,574.111,569.995,0.0
56491.0,STARLINK-5842,PAYLOAD,2024-03-13 11:34:21,14.9833126,0.0003065,69.9996,135.4853,270.3523,89.7285,-3.5177e-05,-5.13e-06,0.0,0 STARLINK-5842,1 56491U 23064AV  24073.48219678 -.00000513  00000-0 -35177-4 0  9999,2 56491  69.9996 135.4853 0003065 270.3523  89.7285 14.98331260 47456,6950.189,96.107,574.184,569.924,0.0
56491.0,STARLINK-5842,PAYLOAD,2024-03-13 21:11:09,14.98350247,0.0003155,69.9998,134.4742,275.035,85.0449,-0.00029703,-3.637e-05,0.0,0 STARLINK-5842,1 56491U 23064AV  24073.88274959 -.00003637  00000-0 -29703-3 0  9993,2 56491  69.9998 134.4742 0003155 275.0350  85.0449 14.98350247 47518,6950.13,96.106,574.188,569.803,0.0
56491.0,STARLINK-5842,PAYLOAD,2024-03-14 05:11:50,14.98327191,0.0002942,69.9999,133.6346,265.8429,94.2394,5.8303e-05,6.03e-06,0.0,0 STARLINK-5842,1 56491U 23064AV  24074.21655650  .00000603  00000-0  58303-4 0  9999,2 56491  69.9999 133.6346 0002942 265.8429  94.2394 14.98327191 47925,6950.202,96.107,574.111,570.022,0.0
